NORAD_CAT_ID,OBJECT_NAME,OBJECT_TYPE,EPOCH,MEAN_MOTION,ECCENTRICITY,INCLINATION,RA_OF_ASC_NODE,ARG_OF_PERICENTER,MEAN_ANOMALY,BSTAR,MEAN_MOTION_DOT,MEAN_MOTION_DDOT,TLE_LINE0,TLE_LINE1,TLE_LINE2,SEMIMAJOR_AXIS,PERIOD,APOGEE,PERIGEE,DECAYED
56777.0,STARLINK-5582,PAYLOAD,2024-07-17 18:34:33,14.98325789,0.0002915,70.0006,57.2596,272.8009,87.2816,-2.7563e-05,-4.22e-06,0.0,0 STARLINK-5582,1 56777U 23078L   24199.77399962 -.00000422  00000-0 -27563-4 0  9996,2 56777  70.0006  57.2596 0002915 272.8009  87.2816 14.98325789 63070,6950.206,96.107,574.097,570.045,0.0
56777.0,STARLINK-5582,PAYLOAD,2024-07-17 21:46:49,14.98327207,0.0002705,70.001,56.9245,268.4961,91.5888,2.7707e-05,2.38e-06,0.0,0 STARLINK-5582,1 56777U 23078L   24199.90751747  .00000238  00000-0  27707-4 0  9997,2 56777  70.0010  56.9245 0002705 268.4961  91.5888 14.98327207 62834,6950.202,96.107,573.947,570.186,0.0
56777.0,STARLINK-5582,PAYLOAD,2024-07-18 07:23:37,14.98358708,0.0002984,70.0009,55.9139,271.7535,88.3282,-0.00064938,-7.838e-05,0.0,0 STARLINK-5582,1 56777U 23078L   24200.30807015 -.00007838  00000-0 -64938-3 0  9995,2 56777  70.0009  55.9139 0002984 271.7535  88.3282 14.98358708 63154,6950.104,96.105,574.043,569.895,0.0
56777.0,STARLINK-5582,PAYLOAD,2024-07-18 18:36:34,14.98331482,0.0003007,70.0,54.7344,268.359,91.7225,-2.6001e-05,-4.03e-06,0.0,0 STARLINK-5582,1 56777U 23078L   24200.77539636 -.00000403  00000-0 -26001-4 0  9998,2 56777  70.0000  54.7344 0003007 268.3590  91.7225 14.98331482 63223,6950.188,96.107,574.143,569.963,0.0
56777.0,STARLINK-5582,PAYLOAD,2024-07-18 21:48:50,14.98333907,0.0003055,69.9996,54.3973,271.6478,88.4331,-2.1965e-06,-1.19e-06,0.0,0 STARLINK-5582,1 56777U 23078L   24200.90891435 -.00000119  00000-0 -21965-5 0  9990,2 56777  69.9996  54.3973 0003055 271.6478  88.4331 14.98333907 62980,6950.181,96.107,574.169,569.923,0.0
56777.0,STARLINK-5582,PAYLOAD,2024-07-18 23:24:58,14.98339517,0.000269,70.0001,54.2295,256.4146,103.6713,-6.324e-05,-8.48e-06,0.0,0 STARLINK-5582,1 56777U 23078L   24200.97567132 -.00000848  00000-0 -63240-4 0  9991,2 56777  70.0001  54.2295 0002690 256.4146 103.6713 14.98339517 63251,6950.163,96.106,573.898,570.159,0.0
56777.0,STARLINK-5582,PAYLOAD,2024-07-19 20:14:43,14.98328668,0.000295,69.9998,52.0412,267.464,92.6181,6.0289e-05,6.26e-06,0.0,0 STARLINK-5582,1 56777U 23078L   24201.84355543  .00000626  00000-0  60289-4 0  9991,2 56777  69.9998  52.0412 0002950 267.4640  92.6181 14.98328668 63385,6950.197,96.107,574.112,570.012,0.0
56777.0,STARLINK-5582,PAYLOAD,2024-07-19 21:50:51,14.98329455,0.0002942,69.9998,51.8728,267.993,92.0892,6.9161e-05,7.32e-06,0.0,0 STARLINK-5582,1 56777U 23078L   24201.91031481  .00000732  00000-0  69161-4 0  9997,2 56777  69.9998  51.8728 0002942 267.9930  92.0892 14.98329455 63131,6950.195,96.107,574.104,570.015,0.0
56777.0,STARLINK-5582,PAYLOAD,2024-07-20 07:27:39,14.98331385,0.0003045,69.9998,50.8629,270.2413,89.8397,0.00011231,1.247e-05,0.0,0 STARLINK-5582,1 56777U 23078L   24202.31087240  .00001247  00000-0  11231-3 0  9992,2 56777  69.9998  50.8629 0003045 270.2413  89.8397 14.98331385 63193,6950.189,96.107,574.17,569.937,0.0
56777.0,STARLINK-5582,PAYLOAD,2024-07-20 20:16:43,14.98333681,0.0003077,69.9997,49.5162,269.6198,90.4608,5.2966e-05,5.39e-06,0.0,0 STARLINK-5582,1 56777U 23078L   24202.84495272  .00000539  00000-0  52966-4 0  9992,2 56777  69.9997  49.5162 0003077 269.6198  90.4608 14.98333681 63538,6950.182,96.107,574.185,569.908,0.0
56777.0,STARLINK-5582,PAYLOAD,2024-07-20 21:52:51,14.98334267,0.0003068,69.9997,49.348,269.8379,90.2429,5.9324e-05,6.15e-06,0.0,0 STARLINK-5582,1 56777U 23078L   24202.91171208  .00000615  00000-0  59324-4 0  9990,2 56777  69.9997  49.3480 0003068 269.8379  90.2429 14.98334267 63284,6950.18,96.107,574.177,569.912,0.0
56777.0,STARLINK-5582,PAYLOAD,2024-07-21 13:54:12,14.98318796,0.0003,70.0001,47.665,269.3093,90.7723,0.00020576,2.362e-05,0.0,0 STARLINK-5582,1 56777U 23078L   24203.57931597  .00002362  00000-0  20576-3 0  9995,2 56777  70.0001  47.6650 0003000 269.3093  90.7723 14.98318796 63389,6950.228,96.108,574.178,570.007,0.0
56777.0,STARLINK-5582,PAYLOAD,2024-07-21 20:18:45,14.98328755,0.0003051,70.0,46.9917,270.2687,89.8123,4.1992e-06,-4.3e-07,0.0,0 STARLINK-5582,1 56777U 23078L   24203.84635621 -.00000043  00000-0  41992-5 0  9996,2 56777  70.0000  46.9917 0003051 270.2687  89.8123 14.98328755 63684,6950.197,96.107,574.182,569.941,0.0
56777.0,STARLINK-5582,PAYLOAD,2024-07-21 21:54:53,14.98330724,0.0003043,70.0,46.8235,270.422,89.659,2.5874e-05,2.16e-06,0.0,0 STARLINK-5582,1 56777U 23078L   24203.91311437  .00000216  00000-0  25874-4 0  9991,2 56777  70.0000  46.8235 0003043 270.4220  89.6590 14.98330724 63430,6950.191,96.107,574.171,569.941,0.0
56777.0,STARLINK-5582,PAYLOAD,2024-07-21 23:31:01,14.98331445,0.0003044,70.0001,46.6553,270.5423,89.5387,3.3199e-05,3.03e-06,0.0,0 STARLINK-5582,1 56777U 23078L   24203.97987370  .00000303  00000-0  33199-4 0  9998,2 56777  70.0001  46.6553 0003044 270.5423  89.5387 14.98331445 63444,6950.188,96.107,574.169,569.938,0.0
56777.0,STARLINK-5582,PAYLOAD,2024-07-22 21:56:53,14.98333875,0.0002975,70.0004,44.2995,269.909,90.1728,4.7755e-05,4.77e-06,0.0,0 STARLINK-5582,1 56777U 23078L   24204.91451087  .00000477  00000-0  47755-4 0  9999,2 56777  70.0004  44.2995 0002975 269.9090  90.1728 14.98333875 63586,6950.181,96.107,574.114,569.978,0.0
56777.0,STARLINK-5582,PAYLOAD,2024-07-22 23:33:01,14.98334953,0.0002964,70.0005,44.1313,269.9571,90.1249,6.0316e-05,6.27e-06,0.0,0 STARLINK-5582,1 56777U 23078L   24204.98126982  .00000627  00000-0  60316-4 0  9994,2 56777  70.0005  44.1313 0002964 269.9571  90.1249 14.98334953 63858,6950.178,96.107,574.103,569.983,0.0
56777.0,STARLINK-5582,PAYLOAD,2024-07-23 23:35:03,14.98326327,0.0002908,70.0005,41.606,263.0016,97.0813,3.5827e-05,3.34e-06,0.0,0 STARLINK-5582,1 56777U 23078L   24205.98267601  .00000334  00000-0  35827-4 0  9993,2 56777  70.0005  41.6060 0002908 263.0016  97.0813 14.98326327 64003,6950.204,96.107,574.09,570.048,0.0
56777.0,STARLINK-5582,PAYLOAD,2024-07-24 23:37:03,14.98332512,0.0003667,70.0056,39.0754,264.8094,95.2646,9.5442e-05,1.046e-05,0.0,0 STARLINK-5582,1 56777U 23078L   24206.98406681  .00001046  00000-0  95442-4 0  9997,2 56777  70.0056  39.0754 0003667 264.8094  95.2646 14.98332512 64151,6950.185,96.107,574.599,569.501,0.0
56777.0,STARLINK-5582,PAYLOAD,2024-07-25 22:02:56,14.98329442,0.0003089,69.9998,36.7228,265.6045,94.4761,-4.1987e-06,-1.43e-06,0.0,0 STARLINK-5582,1 56777U 23078L   24207.91871185 -.00000143  00000-0 -41987-5 0  9991,2 56777  69.9998  36.7228 0003089 265.6045  94.4761 14.98329442 64030,6950.195,96.107,574.207,569.913,0.0
56777.0,STARLINK-5582,PAYLOAD,2024-07-25 23:39:04,14.98330627,0.0004252,70.0003,36.5525,255.6902,104.3785,1.9105e-06,-7e-07,0.0,0 STARLINK-5582,1 56777U 23078L   24207.98546716 -.00000070  00000-0  19105-5 0  9992,2 56777  70.0003  36.5525 0004252 255.6902 104.3785 14.98330627 64306,6950.191,96.107,575.011,569.101,0.0
56777.0,STARLINK-5582,PAYLOAD,2024-07-26 06:03:37,14.98330028,0.0002924,69.9996,35.8804,269.473,90.6095,-4.3632e-06,-1.45e-06,0.0,0 STARLINK-5582,1 56777U 23078L   24208.25251349 -.00000145  00000-0 -43632-5 0  9994,2 56777  69.9996  35.8804 0002924 269.4730  90.6095 14.98330028 64083,6950.193,96.107,574.09,570.026,0.0
56777.0,STARLINK-5582,PAYLOAD,2024-07-26 22:04:57,14.98333457,0.0002962,69.9965,34.1962,268.5951,91.4869,8.0314e-05,8.65e-06,0.0,0 STARLINK-5582,1 56777U 23078L   24208.92010748  .00000865  00000-0  80314-4 0  9998,2 56777  69.9965  34.1962 0002962 268.5951  91.4869 14.98333457 64181,6950.182,96.107,574.106,569.989,0.0
56777.0,STARLINK-5582,PAYLOAD,2024-07-27 12:30:10,14.9832777,0.0002915,69.9976,32.6815,269.0714,91.0111,2.0846e-05,1.56e-06,0.0,0 STARLINK-5582,1 56777U 23078L   24209.52095230  .00000156  00000-0  20846-4 0  9991,2 56777  69.9976  32.6815 0002915 269.0714  91.0111 14.98327770 64530,6950.2,96.107,574.091,570.039,0.0
56777.0,STARLINK-5582,PAYLOAD,2024-07-27 22:06:58,14.98326983,0.0002966,70.0011,31.672,269.4703,90.6116,8.0256e-06,3e-08,0.0,0 STARLINK-5582,1 56777U 23078L   24209.92151397  .00000003  00000-0  80256-5 0  9995,2 56777  70.0011  31.6720 0002966 269.4703  90.6116 14.98326983 64338,6950.202,96.107,574.129,570.006,0.0
56777.0,STARLINK-5582,PAYLOAD,2024-07-28 12:32:10,14.98334372,0.000301,70.0004,30.1574,270.9535,89.1279,1.9624e-05,1.41e-06,0.0,0 STARLINK-5582,1 56777U 23078L   24210.52234938  .00000141  00000-0  19624-4 0  9999,2 56777  70.0004  30.1574 0003010 270.9535  89.1279 14.98334372 64684,6950.179,96.107,574.136,569.952,0.0
56777.0,STARLINK-5582,PAYLOAD,2024-07-28 22:08:59,14.98334184,0.000303,70.0006,29.1478,272.5756,87.5056,6.2546e-05,6.53e-06,0.0,0 STARLINK-5582,1 56777U 23078L   24210.92290782  .00000653  00000-0  62546-4 0  9991,2 56777  70.0006  29.1478 0003030 272.5756  87.5056 14.98334184 64486,6950.18,96.107,574.151,569.939,0.0
56777.0,STARLINK-5582,PAYLOAD,2024-07-29 20:34:49,14.98357495,0.0003311,69.9999,26.7913,270.5183,89.5596,0.00030735,3.579e-05,0.0,0 STARLINK-5582,1 56777U 23078L   24211.85751737  .00003579  00000-0  30735-3 0  9990,2 56777  69.9999  26.7913 0003311 270.5183  89.5596 14.98357495 64880,6950.108,96.105,574.274,569.672,0.0
56777.0,STARLINK-5582,PAYLOAD,2024-07-29 22:10:57,14.98358478,0.0003299,70.0,26.6228,270.0715,90.0066,0.0003156,3.677e-05,0.0,0 STARLINK-5582,1 56777U 23078L   24211.92427565  .00003677  00000-0  31560-3 0  9993,2 56777  70.0000  26.6228 0003299 270.0715  90.0066 14.98358478 64639,6950.105,96.105,574.263,569.677,0.0
56777.0,STARLINK-5582,PAYLOAD,2024-07-30 04:35:31,14.98337452,0.0003397,70.0,25.9496,270.2235,89.8535,6.935e-05,7.35e-06,0.0,0 STARLINK-5582,1 56777U 23078L   24212.19133183  .00000735  00000-0  69350-4 0  9994,2 56777  70.0000  25.9496 0003397 270.2235  89.8535 14.98337452 64935,6950.17,96.107,574.396,569.674,0.0
